{
  "norad_id": 58439,
  "name": "STARLINK-30951",
  "history": [
    {
      "epoch": "2026-03-28T22:03:26.382240Z",
      "apogee_km": 484.8631368092729,
      "perigee_km": 482.87041091334413,
      "latitude_deg": -1.3709167527578446e-05,
      "longitude_deg": 135.96066115686025,
      "height_km": 483.45064854865717,
      "semi_major_axis_km": 6862.003773861308,
      "eccentricity": 0.0001452,
      "inclination_deg": 42.9991,
      "raan_deg": 293.1532,
      "arg_perigee_deg": 281.1575,
      "mean_anomaly_deg": 78.9113,
      "mean_motion_rev_day": 15.27306968
    },
    {
      "epoch": "2026-03-28T22:03:26.383104Z",
      "apogee_km": 484.8634112894233,
      "perigee_km": 482.8701364331928,
      "latitude_deg": -1.0632473082567813e-05,
      "longitude_deg": 135.96066082824154,
      "height_km": 483.4505954434569,
      "semi_major_axis_km": 6862.003773861308,
      "eccentricity": 0.00014524,
      "inclination_deg": 42.9991,
      "raan_deg": 293.1532,
      "arg_perigee_deg": 281.1575,
      "mean_anomaly_deg": 78.9113,
      "mean_motion_rev_day": 15.27306968
    },
    {
      "epoch": "2026-03-29T05:54:16.471008Z",
      "apogee_km": 484.6712263458512,
      "perigee_km": 482.69557101666305,
      "latitude_deg": 4.749817375240845e-05,
      "longitude_deg": 16.08364834856026,
      "height_km": 483.27867017960943,
      "semi_major_axis_km": 6861.820398681257,
      "eccentricity": 0.00014396,
      "inclination_deg": 42.9992,
      "raan_deg": 291.3071,
      "arg_perigee_deg": 280.5813,
      "mean_anomaly_deg": 79.4877,
      "mean_motion_rev_day": 15.27368192
    },
    {
      "epoch": "2026-03-30T13:17:22.091424Z",
      "apogee_km": 484.72016439761956,
      "perigee_km": 481.3942691129896,
      "latitude_deg": -7.984535117160913e-06,
      "longitude_deg": -103.3648600183421,
      "height_km": 482.38516854076136,
      "semi_major_axis_km": 6861.194216755304,
      "eccentricity": 0.00024237,
      "inclination_deg": 43.0,
      "raan_deg": 283.921,
      "arg_perigee_deg": 285.6833,
      "mean_anomaly_deg": 74.3751,
      "mean_motion_rev_day": 15.27577288
    }
  ]
}